[{"OBJECT_NAME":"QIANFAN-39","OBJECT_ID":"2024-232D","EPOCH":"2026-03-09T21:25:16.059072","MEAN_MOTION":14.25440879,"ECCENTRICITY":0.00171102,"INCLINATION":89.0064,"RA_OF_ASC_NODE":27.3413,"ARG_OF_PERICENTER":145.5992,"MEAN_ANOMALY":214.6313,"EPHEMERIS_TYPE":0,"CLASSIFICATION_TYPE":"U","NORAD_CAT_ID":62240,"ELEMENT_SET_NO":999,"REV_AT_EPOCH":11380,"BSTAR":0.00022622412,"MEAN_MOTION_DOT":5.49e-6,"MEAN_MOTION_DDOT":0},{"OBJECT_NAME":"NOAA 16 DEB","OBJECT_ID":"2000-055AE","EPOCH":"2026-03-09T19:43:44.250816","MEAN_MOTION":14.29254397,"ECCENTRICITY":0.00089973,"INCLINATION":98.812,"RA_OF_ASC_NODE":175.9794,"ARG_OF_PERICENTER":270.073,"MEAN_ANOMALY":89.942,"EPHEMERIS_TYPE":0,"CLASSIFICATION_TYPE":"U","NORAD_CAT_ID":41071,"ELEMENT_SET_NO":999,"REV_AT_EPOCH":53168,"BSTAR":0.0018148103,"MEAN_MOTION_DOT":4.573e-5,"MEAN_MOTION_DDOT":0}]
